OBJECT_NAME,OBJECT_ID,EPOCH,MEAN_MOTION,ECCENTRICITY,INCLINATION,RA_OF_ASC_NODE,ARG_OF_PERICENTER,MEAN_ANOMALY,EPHEMERIS_TYPE,CLASSIFICATION_TYPE,NORAD_CAT_ID,ELEMENT_SET_NO,REV_AT_EPOCH,BSTAR,MEAN_MOTION_DOT,MEAN_MOTION_DDOT
ONEWEB-0158,2021-025N,2026-07-01T21:45:43.939584,13.13469051,.0001723,87.8975,317.2878,102.3811,257.7511,0,U,48054,999,25556,.45170578E-3,.178E-5,0
ONEWEB-0157,2021-025P,2026-07-01T22:22:18.996384,13.13470317,.00022459,87.8974,317.2879,101.1491,258.9891,0,U,48055,999,25550,-.71179245E-3,-.247E-5,0
ONEWEB-0162,2021-025Q,2026-07-01T21:47:59.567712,13.13468876,.00019339,87.8974,317.2932,93.3557,266.7793,0,U,48056,999,25547,.58518898E-3,.226E-5,0
ONEWEB-0155,2021-025R,2026-07-01T21:57:55.823616,13.13468692,.00019554,87.8977,317.2882,102.7852,257.3495,0,U,48057,999,25561,.98727836E-4,.49E-6,0
ONEWEB-0149,2021-025S,2026-07-01T22:29:37.320864,13.13469197,.00019373,87.8976,317.2880,92.6860,267.4491,0,U,48058,999,25542,-.13249294E-2,-.471E-5,0
ONEWEB-0148,2021-025T,2026-07-01T21:35:59.579232,13.13469455,.00022182,87.8972,317.3011,86.2295,273.9088,0,U,48059,999,25554,.25242054E-3,.105E-5,0
ONEWEB-0160,2021-025U,2026-07-01T20:10:39.764928,13.13468371,.00011507,87.8971,317.3091,97.2635,262.8625,0,U,48060,999,25548,.14152468E-3,.64E-6,0
ONEWEB-0163,2021-025V,2026-07-01T21:38:25.663488,13.13468822,.00021706,87.8977,317.2922,100.9705,259.1668,0,U,48061,999,25561,.88951351E-3,.338E-5,0
ONEWEB-0159,2021-025W,2026-07-01T21:26:14.557920,13.13468929,.00021402,87.8980,317.2881,101.8448,258.2921,0,U,48062,999,25553,.53950135E-3,.21E-5,0
ONEWEB-0164,2021-025X,2026-07-01T20:59:24.936288,13.13469777,.00018114,87.8979,317.2979,99.7205,260.4129,0,U,48063,999,25551,-.73567043E-3,-.256E-5,0
ONEWEB-0167,2021-025Y,2026-07-01T21:39:39.665952,13.13468522,.00022214,87.8969,317.3008,114.9338,245.2022,0,U,48064,999,25550,.88601812E-3,.336E-5,0
ONEWEB-0166,2021-025Z,2026-07-01T22:12:33.499008,13.13469134,.00019504,87.8978,317.2691,96.9118,263.2233,0,U,48065,999,25558,-.75380157E-3,-.263E-5,0
ONEWEB-0151,2021-025AA,2026-07-01T02:08:19.530816,13.13468336,.00018664,87.8971,317.4512,102.4133,257.7206,0,U,48066,999,25541,-.58432706E-3,-.201E-5,0
ONEWEB-0170,2021-025AB,2026-07-01T22:27:09.602784,13.13468126,.00014535,87.8973,317.2850,110.5515,249.5771,0,U,48067,999,25548,-.85019626E-3,-.298E-5,0
ONEWEB-0168,2021-025AC,2026-07-01T22:05:13.934688,13.13467630,.00019135,87.8979,317.2884,100.1987,259.9358,0,U,48068,999,25549,-.18481772E-3,-.55E-6,0
ONEWEB-0173,2021-025AD,2026-07-01T21:53:03.181632,13.13468837,.00021982,87.8974,317.2911,104.6825,255.4548,0,U,48069,999,25573,.81046342E-4,.42E-6,0
ONEWEB-0171,2021-025AE,2026-07-01T20:56:58.498656,13.13470007,.00018502,87.8968,317.3066,101.6649,258.4688,0,U,48070,999,25554,-.751206E-3,-.262E-5,0
ONEWEB-0172,2021-025AF,2026-07-01T02:10:46.434144,13.13469465,.00019678,87.8972,317.4529,103.2840,256.8509,0,U,48071,999,25633,-.62618981E-3,-.216E-5,0
ONEWEB-0174,2021-025AG,2026-07-01T21:50:37.048992,13.13489500,.0001933,87.8959,317.2885,94.0068,266.1282,0,U,48072,999,25576,-.14357672E-1,-.5229E-4,0
ONEWEB-0175,2021-025AH,2026-07-01T22:34:29.087616,13.13469450,.00018267,87.8978,317.2680,109.1325,251.0002,0,U,48073,999,25542,-.1248793E-2,-.443E-5,0
ONEWEB-0177,2021-025AJ,2026-07-01T02:44:54.303360,13.13469235,.00021123,87.8974,317.4507,97.3409,262.7961,0,U,48074,999,25550,.14377543E-3,.65E-6,0
ONEWEB-0178,2021-025AK,2026-07-01T21:28:53.533056,13.13469943,.000202,87.8969,317.3052,105.8588,254.2764,0,U,48075,999,25565,.44444451E-3,.175E-5,0
ONEWEB-0108,2021-025AL,2026-07-01T22:19:51.601440,13.13469160,.00017649,87.8976,317.2793,91.7956,268.3375,0,U,48076,999,25558,-.83641509E-3,-.293E-5,0
ONEWEB-0169,2021-025AM,2026-07-01T21:16:29.130528,13.13469889,.0001995,87.8973,317.2957,95.6955,264.4402,0,U,48077,999,25423,.13440647E-3,.62E-6,0
ONEWEB-0176,2021-031A,2026-07-01T06:15:30.959136,13.14502896,.00019946,87.8974,286.8950,103.4035,256.7317,0,U,48210,999,25016,-.29686563E-3,-.97E-6,0
ONEWEB-0184,2021-031B,2026-07-01T07:26:18.344256,13.14502275,.00021608,87.8981,286.8867,124.0283,236.1053,0,U,48211,999,25014,-.73856305E-3,-.261E-5,0
ONEWEB-0179,2021-031C,2026-07-01T16:41:32.977248,14.25536784,.0219915,87.8998,283.4809,209.5047,149.3590,0,U,48212,999,25111,.1119503E-3,.36E-5,0
ONEWEB-0180,2021-031D,2026-07-01T16:38:56.016960,13.14503431,.00023759,87.8985,286.8069,106.0575,254.0817,0,U,48213,999,25012,-.90112648E-3,-.321E-5,0
ONEWEB-0218,2021-031E,2026-07-01T06:13:14.807424,13.14503261,.00024477,87.8980,286.8926,120.7637,239.3734,0,U,48214,999,25022,-.15481886E-3,-.45E-6,0
ONEWEB-0209,2021-031F,2026-07-01T16:54:54.603360,13.14502892,.00022211,87.8971,286.8197,99.1522,260.9859,0,U,48215,999,25028,-.48453439E-3,-.167E-5,0
