ONEWEB-0158             
1 48054U 21025N   26182.90675856  .00000178  00000+0  45171-3 0  9992
2 48054  87.8975 317.2878 0001723 102.3811 257.7511 13.13469051255566
ONEWEB-0157             
1 48055U 21025P   26182.93216431 -.00000247  00000+0 -71179-3 0  9992
2 48055  87.8974 317.2879 0002245 101.1491 258.9891 13.13470317255503
ONEWEB-0162             
1 48056U 21025Q   26182.90832833  .00000226  00000+0  58519-3 0  9998
2 48056  87.8974 317.2932 0001933  93.3557 266.7793 13.13468876255473
ONEWEB-0155             
1 48057U 21025R   26182.91522944  .00000049  00000+0  98728-4 0  9999
2 48057  87.8977 317.2882 0001955 102.7852 257.3495 13.13468692255615
ONEWEB-0149             
1 48058U 21025S   26182.93723751 -.00000471  00000+0 -13249-2 0  9995
2 48058  87.8976 317.2880 0001937  92.6860 267.4491 13.13469197255427
ONEWEB-0148             
1 48059U 21025T   26182.89999513  .00000105  00000+0  25242-3 0  9991
2 48059  87.8972 317.3011 0002218  86.2295 273.9088 13.13469455255549
ONEWEB-0160             
1 48060U 21025U   26182.84073802  .00000064  00000+0  14152-3 0  9994
2 48060  87.8971 317.3091 0001150  97.2635 262.8625 13.13468371255485
ONEWEB-0163             
1 48061U 21025V   26182.90168592  .00000338  00000+0  88951-3 0  9995
2 48061  87.8977 317.2922 0002170 100.9705 259.1668 13.13468822255619
ONEWEB-0159             
1 48062U 21025W   26182.89322405  .00000210  00000+0  53950-3 0  9999
2 48062  87.8980 317.2881 0002140 101.8448 258.2921 13.13468929255530
ONEWEB-0164             
1 48063U 21025X   26182.87459417 -.00000256  00000+0 -73567-3 0  9990
2 48063  87.8979 317.2979 0001811  99.7205 260.4129 13.13469777255512
ONEWEB-0167             
1 48064U 21025Y   26182.90254243  .00000336  00000+0  88602-3 0  9998
2 48064  87.8969 317.3008 0002221 114.9338 245.2022 13.13468522255508
ONEWEB-0166             
1 48065U 21025Z   26182.92538772 -.00000263  00000+0 -75380-3 0  9993
2 48065  87.8978 317.2691 0001950  96.9118 263.2233 13.13469134255581
ONEWEB-0151             
1 48066U 21025AA  26182.08911494 -.00000201  00000+0 -58433-3 0  9999
2 48066  87.8971 317.4512 0001866 102.4133 257.7206 13.13468336255418
ONEWEB-0170             
1 48067U 21025AB  26182.93552781 -.00000298  00000+0 -85020-3 0  9992
2 48067  87.8973 317.2850 0001453 110.5515 249.5771 13.13468126255480
ONEWEB-0168             
1 48068U 21025AC  26182.92030017 -.00000055  00000+0 -18482-3 0  9994
2 48068  87.8979 317.2884 0001913 100.1987 259.9358 13.13467630255499
ONEWEB-0173             
1 48069U 21025AD  26182.91184238  .00000042  00000+0  81046-4 0  9990
2 48069  87.8974 317.2911 0002198 104.6825 255.4548 13.13468837255731
ONEWEB-0171             
1 48070U 21025AE  26182.87289929 -.00000262  00000+0 -75121-3 0  9992
2 48070  87.8968 317.3066 0001850 101.6649 258.4688 13.13470007255542
ONEWEB-0172             
1 48071U 21025AF  26182.09081521 -.00000216  00000+0 -62619-3 0  9992
2 48071  87.8972 317.4529 0001967 103.2840 256.8509 13.13469465256331
ONEWEB-0174             
1 48072U 21025AG  26182.91015103 -.00005229  00000+0 -14358-1 0  9991
2 48072  87.8959 317.2885 0001933  94.0068 266.1282 13.13489500255762
ONEWEB-0175             
1 48073U 21025AH  26182.94061444 -.00000443  00000+0 -12488-2 0  9990
2 48073  87.8978 317.2680 0001826 109.1325 251.0002 13.13469450255420
ONEWEB-0177             
1 48074U 21025AJ  26182.11451740  .00000065  00000+0  14378-3 0  9991
2 48074  87.8974 317.4507 0002112  97.3409 262.7961 13.13469235255500
ONEWEB-0178             
1 48075U 21025AK  26182.89506404  .00000175  00000+0  44444-3 0  9994
2 48075  87.8969 317.3052 0002020 105.8588 254.2764 13.13469943255659
ONEWEB-0108             
1 48076U 21025AL  26182.93045835 -.00000293  00000+0 -83642-3 0  9992
2 48076  87.8976 317.2793 0001764  91.7956 268.3375 13.13469160255582
ONEWEB-0169             
1 48077U 21025AM  26182.88644827  .00000062  00000+0  13441-3 0  9995
2 48077  87.8973 317.2957 0001995  95.6955 264.4402 13.13469889254237
ONEWEB-0176             
1 48210U 21031A   26182.26077499 -.00000097  00000+0 -29687-3 0  9997
2 48210  87.8974 286.8950 0001994 103.4035 256.7317 13.14502896250161
ONEWEB-0184             
1 48211U 21031B   26182.30993454 -.00000261  00000+0 -73856-3 0  9991
2 48211  87.8981 286.8867 0002160 124.0283 236.1053 13.14502275250145
ONEWEB-0179             
1 48212U 21031C   26182.69552057  .00000360  00000+0  11195-3 0  9990
2 48212  87.8998 283.4809 0219915 209.5047 149.3590 14.25536784251112
ONEWEB-0180             
1 48213U 21031D   26182.69370390 -.00000321  00000+0 -90113-3 0  9995
2 48213  87.8985 286.8069 0002375 106.0575 254.0817 13.14503431250127
ONEWEB-0218             
1 48214U 21031E   26182.25919916 -.00000045  00000+0 -15482-3 0  9990
2 48214  87.8980 286.8926 0002447 120.7637 239.3734 13.14503261250223
ONEWEB-0209             
1 48215U 21031F   26182.70479865 -.00000167  00000+0 -48453-3 0  9994
2 48215  87.8971 286.8197 0002221  99.1522 260.9859 13.14502892250289
